{
    "links": {
        "self": "http://www.neowsapp.com/rest/v1/neo/3448068?api_key=iIulBulltgU6a56xZRHN4H3l9WmuAYTsLGpBGhQ2"
    },
    "id": "3448068",
    "neo_reference_id": "3448068",
    "name": "(2009 DS10)",
    "designation": "2009 DS10",
    "nasa_jpl_url": "http://ssd.jpl.nasa.gov/sbdb.cgi?sstr=3448068",
    "absolute_magnitude_h": 21.0,
    "estimated_diameter": {
        "kilometers": {
            "estimated_diameter_min": 0.1677084622,
            "estimated_diameter_max": 0.3750075218
        },
        "meters": {
            "estimated_diameter_min": 167.7084621628,
            "estimated_diameter_max": 375.0075217981
        },
        "miles": {
            "estimated_diameter_min": 0.1042091748,
            "estimated_diameter_max": 0.2330187988
        },
        "feet": {
            "estimated_diameter_min": 550.2246310023,
            "estimated_diameter_max": 1230.3396778159
        }
    },
    "is_potentially_hazardous_asteroid": true,
    "close_approach_data": [
        {
            "close_approach_date": "1926-10-01",
            "close_approach_date_full": "1926-Oct-01 06:03",
            "epoch_date_close_approach": -1364925420000,
            "relative_velocity": {
                "kilometers_per_second": "20.5092517796",
                "kilometers_per_hour": "73833.3064066478",
                "miles_per_hour": "45877.1453058418"
            },
            "miss_distance": {
                "astronomical": "0.3387190316",
                "lunar": "131.7617032924",
                "kilometers": "50671645.655822692",
                "miles": "31485900.5899174696"
            },
            "orbiting_body": "Earth"
        },
        {
            "close_approach_date": "2009-02-09",
            "close_approach_date_full": "2009-Feb-09 21:26",
            "epoch_date_close_approach": 1234214760000,
            "relative_velocity": {
                "kilometers_per_second": "20.7775572593",
                "kilometers_per_hour": "74799.2061333407",
                "miles_per_hour": "46477.3178332416"
            },
            "miss_distance": {
                "astronomical": "0.3116381799",
                "lunar": "121.2272519811",
                "kilometers": "46620407.923716813",
                "miles": "28968578.1929774994"
            },
            "orbiting_body": "Earth"
        },
        {
            "close_approach_date": "2124-02-18",
            "close_approach_date_full": "2124-Feb-18 00:11",
            "epoch_date_close_approach": 4863888660000,
            "relative_velocity": {
                "kilometers_per_second": "23.8986318872",
                "kilometers_per_hour": "86035.074793799",
                "miles_per_hour": "53458.8496684025"
            },
            "miss_distance": {
                "astronomical": "0.4247448542",
                "lunar": "165.2257482838",
                "kilometers": "63540925.481780554",
                "miles": "39482500.2665134852"
            },
            "orbiting_body": "Earth"
        }
    ],
    "orbital_data": {
        "orbit_id": "11",
        "orbit_determination_date": "2017-04-06 09:01:16",
        "first_observation_date": "2009-02-21",
        "last_observation_date": "2009-03-26",
        "data_arc_in_days": 33,
        "observations_used": 27,
        "orbit_uncertainty": "7",
        "minimum_orbit_intersection": ".0386955",
        "jupiter_tisserand_invariant": "3.400",
        "epoch_osculation": "2459000.5",
        "eccentricity": ".5883347627075295",
        "semi_major_axis": "2.209660016648573",
        "inclination": "7.508089337494905",
        "ascending_node_longitude": "313.1115757995491",
        "orbital_period": "1199.73854713843",
        "perihelion_distance": ".9096402150893191",
        "perihelion_argument": "123.4148051997004",
        "aphelion_distance": "3.509679818207827",
        "perihelion_time": "2458434.689854080139",
        "mean_anomaly": "169.7800350059496",
        "mean_motion": ".3000653774596624",
        "equinox": "J2000",
        "orbit_class": {
            "orbit_class_type": "APO",
            "orbit_class_description": "Near-Earth asteroid orbits which cross the Earth’s orbit similar to that of 1862 Apollo",
            "orbit_class_range": "a (semi-major axis) > 1.0 AU; q (perihelion) < 1.017 AU"
        }
    },
    "is_sentry_object": false
}